[{"OBJECT_NAME":"ONEWEB-0647","OBJECT_ID":"2023-043AK","EPOCH":"2026-03-05T14:39:59.383008","MEAN_MOTION":13.15547801,"ECCENTRICITY":0.0001486,"INCLINATION":87.894,"RA_OF_ASC_NODE":279.9109,"ARG_OF_PERICENTER":93.3275,"MEAN_ANOMALY":266.8026,"EPHEMERIS_TYPE":0,"CLASSIFICATION_TYPE":"U","NORAD_CAT_ID":56079,"ELEMENT_SET_NO":999,"REV_AT_EPOCH":14280,"BSTAR":-8.8405e-5,"MEAN_MOTION_DOT":-2.0e-7,"MEAN_MOTION_DDOT":0},{"OBJECT_NAME":"ONEWEB-0651","OBJECT_ID":"2023-043AL","EPOCH":"2026-03-05T14:33:08.823168","MEAN_MOTION":13.15547369,"ECCENTRICITY":0.0001375,"INCLINATION":87.894,"RA_OF_ASC_NODE":279.9069,"ARG_OF_PERICENTER":79.6383,"MEAN_ANOMALY":280.4902,"EPHEMERIS_TYPE":0,"CLASSIFICATION_TYPE":"U","NORAD_CAT_ID":56080,"ELEMENT_SET_NO":999,"REV_AT_EPOCH":14400,"BSTAR":-0.00010673,"MEAN_MOTION_DOT":-2.7e-7,"MEAN_MOTION_DDOT":0},{"OBJECT_NAME":"ONEWEB-0718","OBJECT_ID":"2023-043AM","EPOCH":"2026-03-05T16:15:49.682304","MEAN_MOTION":13.15548036,"ECCENTRICITY":0.0002027,"INCLINATION":87.8945,"RA_OF_ASC_NODE":279.8732,"ARG_OF_PERICENTER":81.626,"MEAN_ANOMALY":278.51,"EPHEMERIS_TYPE":0,"CLASSIFICATION_TYPE":"U","NORAD_CAT_ID":56081,"ELEMENT_SET_NO":999,"REV_AT_EPOCH":14282,"BSTAR":-0.0001387,"MEAN_MOTION_DOT":-3.9e-7,"MEAN_MOTION_DDOT":0},{"OBJECT_NAME":"ONEWEB-0561","OBJECT_ID":"2023-068A","EPOCH":"2026-03-05T15:19:03.626688","MEAN_MOTION":13.20772816,"ECCENTRICITY":0.0001166,"INCLINATION":87.9169,"RA_OF_ASC_NODE":295.1191,"ARG_OF_PERICENTER":89.6066,"MEAN_ANOMALY":270.5201,"EPHEMERIS_TYPE":0,"CLASSIFICATION_TYPE":"U","NORAD_CAT_ID":56710,"ELEMENT_SET_NO":999,"REV_AT_EPOCH":13583,"BSTAR":0.00013372,"MEAN_MOTION_DOT":6.7e-7,"MEAN_MOTION_DDOT":0},{"OBJECT_NAME":"ONEWEB-0668","OBJECT_ID":"2023-068B","EPOCH":"2026-03-05T12:59:09.007872","MEAN_MOTION":13.16593788,"ECCENTRICITY":0.00018868,"INCLINATION":87.901,"RA_OF_ASC_NODE":249.3824,"ARG_OF_PERICENTER":80.2609,"MEAN_ANOMALY":279.8735,"EPHEMERIS_TYPE":0,"CLASSIFICATION_TYPE":"U","NORAD_CAT_ID":56711,"ELEMENT_SET_NO":999,"REV_AT_EPOCH":13814,"BSTAR":7.3417456e-5,"MEAN_MOTION_DOT":4.1e-7,"MEAN_MOTION_DDOT":0},{"OBJECT_NAME":"ONEWEB-0676","OBJECT_ID":"2023-068C","EPOCH":"2026-03-05T13:10:33.124800","MEAN_MOTION":13.16594036,"ECCENTRICITY":0.0001275,"INCLINATION":87.8996,"RA_OF_ASC_NODE":249.3934,"ARG_OF_PERICENTER":93.9868,"MEAN_ANOMALY":266.1408,"EPHEMERIS_TYPE":0,"CLASSIFICATION_TYPE":"U","NORAD_CAT_ID":56712,"ELEMENT_SET_NO":999,"REV_AT_EPOCH":13806,"BSTAR":4.1696e-5,"MEAN_MOTION_DOT":2.9e-7,"MEAN_MOTION_DDOT":0},{"OBJECT_NAME":"ONEWEB-0677","OBJECT_ID":"2023-068D","EPOCH":"2026-03-05T15:03:09.045792","MEAN_MOTION":13.20772916,"ECCENTRICITY":0.0001568,"INCLINATION":87.9175,"RA_OF_ASC_NODE":295.1128,"ARG_OF_PERICENTER":78.292,"MEAN_ANOMALY":281.8389,"EPHEMERIS_TYPE":0,"CLASSIFICATION_TYPE":"U","NORAD_CAT_ID":56713,"ELEMENT_SET_NO":999,"REV_AT_EPOCH":13613,"BSTAR":0.00010833,"MEAN_MOTION_DOT":5.7e-7,"MEAN_MOTION_DDOT":0},{"OBJECT_NAME":"ONEWEB-0678","OBJECT_ID":"2023-068E","EPOCH":"2026-03-05T15:30:11.287872","MEAN_MOTION":13.15547305,"ECCENTRICITY":0.0001566,"INCLINATION":87.8949,"RA_OF_ASC_NODE":279.8614,"ARG_OF_PERICENTER":98.8756,"MEAN_ANOMALY":261.2551,"EPHEMERIS_TYPE":0,"CLASSIFICATION_TYPE":"U","NORAD_CAT_ID":56714,"ELEMENT_SET_NO":999,"REV_AT_EPOCH":13567,"BSTAR":0.00025502,"MEAN_MOTION_DOT":1.09e-6,"MEAN_MOTION_DDOT":0},{"OBJECT_NAME":"ONEWEB-0679","OBJECT_ID":"2023-068F","EPOCH":"2026-03-05T14:00:42.467904","MEAN_MOTION":13.16593992,"ECCENTRICITY":0.0001473,"INCLINATION":87.9009,"RA_OF_ASC_NODE":249.3725,"ARG_OF_PERICENTER":72.0074,"MEAN_ANOMALY":288.1218,"EPHEMERIS_TYPE":0,"CLASSIFICATION_TYPE":"U","NORAD_CAT_ID":56715,"ELEMENT_SET_NO":999,"REV_AT_EPOCH":13809,"BSTAR":0.00025316,"MEAN_MOTION_DOT":1.1e-6,"MEAN_MOTION_DDOT":0},{"OBJECT_NAME":"ONEWEB-0680","OBJECT_ID":"2023-068G","EPOCH":"2026-03-05T14:52:22.961280","MEAN_MOTION":13.21825287,"ECCENTRICITY":0.0001782,"INCLINATION":87.9174,"RA_OF_ASC_NODE":264.6162,"ARG_OF_PERICENTER":74.1662,"MEAN_ANOMALY":285.9668,"EPHEMERIS_TYPE":0,"CLASSIFICATION_TYPE":"U","NORAD_CAT_ID":56716,"ELEMENT_SET_NO":999,"REV_AT_EPOCH":13741,"BSTAR":0.00042035,"MEAN_MOTION_DOT":1.87e-6,"MEAN_MOTION_DDOT":0},{"OBJECT_NAME":"ONEWEB-0681","OBJECT_ID":"2023-068H","EPOCH":"2026-03-05T14:22:44.660928","MEAN_MOTION":13.21824954,"ECCENTRICITY":5.61e-5,"INCLINATION":87.9166,"RA_OF_ASC_NODE":264.6295,"ARG_OF_PERICENTER":86.1115,"MEAN_ANOMALY":274.0083,"EPHEMERIS_TYPE":0,"CLASSIFICATION_TYPE":"U","NORAD_CAT_ID":56717,"ELEMENT_SET_NO":999,"REV_AT_EPOCH":13740,"BSTAR":-3.7412e-5,"MEAN_MOTION_DOT":-2.0e-8,"MEAN_MOTION_DDOT":0},{"OBJECT_NAME":"ONEWEB-0682","OBJECT_ID":"2023-068J","EPOCH":"2026-03-05T16:07:50.492352","MEAN_MOTION":13.15548167,"ECCENTRICITY":0.0001771,"INCLINATION":87.8943,"RA_OF_ASC_NODE":279.8633,"ARG_OF_PERICENTER":71.4735,"MEAN_ANOMALY":288.6587,"EPHEMERIS_TYPE":0,"CLASSIFICATION_TYPE":"U","NORAD_CAT_ID":56718,"ELEMENT_SET_NO":999,"REV_AT_EPOCH":13584,"BSTAR":0.00025245,"MEAN_MOTION_DOT":1.08e-6,"MEAN_MOTION_DDOT":0},{"OBJECT_NAME":"ONEWEB-0683","OBJECT_ID":"2023-068K","EPOCH":"2026-03-05T14:49:07.086432","MEAN_MOTION":13.15547404,"ECCENTRICITY":0.0001755,"INCLINATION":87.8955,"RA_OF_ASC_NODE":279.8667,"ARG_OF_PERICENTER":80.8532,"MEAN_ANOMALY":279.2797,"EPHEMERIS_TYPE":0,"CLASSIFICATION_TYPE":"U","NORAD_CAT_ID":56719,"ELEMENT_SET_NO":999,"REV_AT_EPOCH":13580,"BSTAR":-0.00030713,"MEAN_MOTION_DOT":-1.03e-6,"MEAN_MOTION_DDOT":0},{"OBJECT_NAME":"ONEWEB-0684","OBJECT_ID":"2023-068L","EPOCH":"2026-03-05T15:00:31.663872","MEAN_MOTION":13.15547298,"ECCENTRICITY":0.0002509,"INCLINATION":87.895,"RA_OF_ASC_NODE":279.8576,"ARG_OF_PERICENTER":117.5659,"MEAN_ANOMALY":242.5726,"EPHEMERIS_TYPE":0,"CLASSIFICATION_TYPE":"U","NORAD_CAT_ID":56720,"ELEMENT_SET_NO":999,"REV_AT_EPOCH":13563,"BSTAR":-0.00034932,"MEAN_MOTION_DOT":-1.19e-6,"MEAN_MOTION_DDOT":0},{"OBJECT_NAME":"ONEWEB-0686","OBJECT_ID":"2023-068M","EPOCH":"2026-03-05T13:03:42.362784","MEAN_MOTION":13.16593545,"ECCENTRICITY":0.0001991,"INCLINATION":87.8988,"RA_OF_ASC_NODE":249.4188,"ARG_OF_PERICENTER":94.5476,"MEAN_ANOMALY":265.5882,"EPHEMERIS_TYPE":0,"CLASSIFICATION_TYPE":"U","NORAD_CAT_ID":56721,"ELEMENT_SET_NO":999,"REV_AT_EPOCH":13807,"BSTAR":-0.0002431,"MEAN_MOTION_DOT":-8.0e-7,"MEAN_MOTION_DDOT":0},{"OBJECT_NAME":"ONEWEB-0694","OBJECT_ID":"2023-068N","EPOCH":"2026-03-05T13:12:50.014368","MEAN_MOTION":13.16592986,"ECCENTRICITY":0.0001844,"INCLINATION":87.9013,"RA_OF_ASC_NODE":249.3629,"ARG_OF_PERICENTER":81.6552,"MEAN_ANOMALY":278.4788,"EPHEMERIS_TYPE":0,"CLASSIFICATION_TYPE":"U","NORAD_CAT_ID":56722,"ELEMENT_SET_NO":999,"REV_AT_EPOCH":13813,"BSTAR":-0.0002451,"MEAN_MOTION_DOT":-8.1e-7,"MEAN_MOTION_DDOT":0},{"OBJECT_NAME":"ONEWEB-0696","OBJECT_ID":"2023-068P","EPOCH":"2026-03-05T15:48:26.624736","MEAN_MOTION":13.15548819,"ECCENTRICITY":0.0001605,"INCLINATION":87.8944,"RA_OF_ASC_NODE":279.8971,"ARG_OF_PERICENTER":105.2256,"MEAN_ANOMALY":254.9051,"EPHEMERIS_TYPE":0,"CLASSIFICATION_TYPE":"U","NORAD_CAT_ID":56723,"ELEMENT_SET_NO":999,"REV_AT_EPOCH":13575,"BSTAR":0.00026523,"MEAN_MOTION_DOT":1.13e-6,"MEAN_MOTION_DDOT":0}]
