ONEWEB-0647             
1 56079U 23043AK  26064.61110397 -.00000020  00000+0 -88405-4 0  9997
2 56079  87.8940 279.9109 0001486  93.3275 266.8026 13.15547801142800
ONEWEB-0651             
1 56080U 23043AL  26064.60635212 -.00000027  00000+0 -10673-3 0  9994
2 56080  87.8940 279.9069 0001375  79.6383 280.4902 13.15547369144009
ONEWEB-0718             
1 56081U 23043AM  26064.67765836 -.00000039  00000+0 -13870-3 0  9993
2 56081  87.8945 279.8732 0002027  81.6260 278.5100 13.15548036142821
ONEWEB-0561             
1 56710U 23068A   26064.63823642  .00000067  00000+0  13372-3 0  9991
2 56710  87.9169 295.1191 0001166  89.6066 270.5201 13.20772816135832
ONEWEB-0668             
1 56711U 23068B   26064.54107648  .00000041  00000+0  73417-4 0  9992
2 56711  87.9010 249.3824 0001886  80.2609 279.8735 13.16593788138146
ONEWEB-0676             
1 56712U 23068C   26064.54899450  .00000029  00000+0  41696-4 0  9992
2 56712  87.8996 249.3934 0001275  93.9868 266.1408 13.16594036138065
ONEWEB-0677             
1 56713U 23068D   26064.62718803  .00000057  00000+0  10833-3 0  9993
2 56713  87.9175 295.1128 0001568  78.2920 281.8389 13.20772916136138
ONEWEB-0678             
1 56714U 23068E   26064.64596398  .00000109  00000+0  25502-3 0  9996
2 56714  87.8949 279.8614 0001566  98.8756 261.2551 13.15547305135676
ONEWEB-0679             
1 56715U 23068F   26064.58382486  .00000110  00000+0  25316-3 0  9996
2 56715  87.9009 249.3725 0001473  72.0074 288.1218 13.16593992138095
ONEWEB-0680             
1 56716U 23068G   26064.61971020  .00000187  00000+0  42035-3 0  9990
2 56716  87.9174 264.6162 0001782  74.1662 285.9668 13.21825287137413
ONEWEB-0681             
1 56717U 23068H   26064.59912802 -.00000002  00000+0 -37412-4 0  9993
2 56717  87.9166 264.6295 0000561  86.1115 274.0083 13.21824954137401
ONEWEB-0682             
1 56718U 23068J   26064.67211218  .00000108  00000+0  25245-3 0  9991
2 56718  87.8943 279.8633 0001771  71.4735 288.6587 13.15548167135845
ONEWEB-0683             
1 56719U 23068K   26064.61744313 -.00000103  00000+0 -30713-3 0  9996
2 56719  87.8955 279.8667 0001755  80.8532 279.2797 13.15547404135805
ONEWEB-0684             
1 56720U 23068L   26064.62536648 -.00000119  00000+0 -34932-3 0  9993
2 56720  87.8950 279.8576 0002509 117.5659 242.5726 13.15547298135634
ONEWEB-0686             
1 56721U 23068M   26064.54424031 -.00000080  00000+0 -24310-3 0  9993
2 56721  87.8988 249.4188 0001991  94.5476 265.5882 13.16593545138079
ONEWEB-0694             
1 56722U 23068N   26064.55057887 -.00000081  00000+0 -24510-3 0  9999
2 56722  87.9013 249.3629 0001844  81.6552 278.4788 13.16592986138131
ONEWEB-0696             
1 56723U 23068P   26064.65864149  .00000113  00000+0  26523-3 0  9998
2 56723  87.8944 279.8971 0001605 105.2256 254.9051 13.15548819135753
